{
    "links": {
        "self": "http://www.neowsapp.com/rest/v1/neo/3445623?api_key=iIulBulltgU6a56xZRHN4H3l9WmuAYTsLGpBGhQ2"
    },
    "id": "3445623",
    "neo_reference_id": "3445623",
    "name": "(2009 CU1)",
    "designation": "2009 CU1",
    "nasa_jpl_url": "http://ssd.jpl.nasa.gov/sbdb.cgi?sstr=3445623",
    "absolute_magnitude_h": 22.5,
    "estimated_diameter": {
        "kilometers": {
            "estimated_diameter_min": 0.0840533402,
            "estimated_diameter_max": 0.1879489824
        },
        "meters": {
            "estimated_diameter_min": 84.0533402073,
            "estimated_diameter_max": 187.9489824394
        },
        "miles": {
            "estimated_diameter_min": 0.0522283081,
            "estimated_diameter_max": 0.1167860472
        },
        "feet": {
            "estimated_diameter_min": 275.7655606856,
            "estimated_diameter_max": 616.6305395464
        }
    },
    "is_potentially_hazardous_asteroid": false,
    "close_approach_data": [
        {
            "close_approach_date": "2009-02-25",
            "close_approach_date_full": "2009-Feb-25 22:11",
            "epoch_date_close_approach": 1235599860000,
            "relative_velocity": {
                "kilometers_per_second": "3.8818496618",
                "kilometers_per_hour": "13974.6587824563",
                "miles_per_hour": "8683.3095084657"
            },
            "miss_distance": {
                "astronomical": "0.2090649765",
                "lunar": "81.3262758585",
                "kilometers": "31275675.176000055",
                "miles": "19433803.396928559"
            },
            "orbiting_body": "Earth"
        }
    ],
    "orbital_data": {
        "orbit_id": "14",
        "orbit_determination_date": "2017-04-06 09:01:25",
        "first_observation_date": "2009-02-03",
        "last_observation_date": "2009-04-16",
        "data_arc_in_days": 72,
        "observations_used": 45,
        "orbit_uncertainty": "6",
        "minimum_orbit_intersection": ".21515",
        "jupiter_tisserand_invariant": "3.469",
        "epoch_osculation": "2459000.5",
        "eccentricity": ".4654573366556081",
        "semi_major_axis": "2.254758481983455",
        "inclination": "4.657812663345174",
        "ascending_node_longitude": "159.653851658142",
        "orbital_period": "1236.65475259743",
        "perihelion_distance": "1.205264604157794",
        "perihelion_argument": "356.0927488088717",
        "aphelion_distance": "3.304252359809115",
        "perihelion_time": "2458596.797133731885",
        "mean_anomaly": "117.5211040520959",
        "mean_motion": ".291107925832871",
        "equinox": "J2000",
        "orbit_class": {
            "orbit_class_type": "AMO",
            "orbit_class_description": "Near-Earth asteroid orbits similar to that of 1221 Amor",
            "orbit_class_range": "1.017 AU < q (perihelion) < 1.3 AU"
        }
    },
    "is_sentry_object": false
}